0246P         2020 12  4.8218  3.318848  0.224778  185.6231   74.2448   17.5743  20250408  10.5  4.0  246P/NEAT                                                MPEC 2024-YC7
0247P         2026 10 25.9532  1.484273  0.625573   47.4956   53.9908   13.6581  20250408  16.5  2.0  247P/LINEAR                                              MPEC 2021-F20
0248P         2025 09 14.9257  2.157774  0.639261  209.9794  207.8067    6.3520  20250408  14.0  4.0  248P/Gibbs                                               MPC 75730
0249P         2025 02  1.6945  0.499507  0.819351   65.7443  239.0425    8.3854  20250408  15.5  4.0  249P/LINEAR                                              MPEC 2022-YN2
0250P         2025 05 16.7528  2.272321  0.398561   45.7120   73.3046   13.1524  20250408  14.5  4.0  250P/Larson                                              MPC182890
0251P         2024 02 13.1677  1.741121  0.504239   31.1947  219.3375   23.3882  20250408  16.5  2.0  251P/LINEAR                                              MPEC 2024-TD8
0252P         2026 11  7.7662  1.003776  0.671022  343.3759  190.9060   10.4196  20250408  17.5  4.0  252P/LINEAR                                              MPEC 2021-S45
0253P         2024 10 21.0216  2.026730  0.415000  230.8427  146.8486    4.9442  20250408  14.5  4.0  253P/PANSTARRS                                           MPC182890
0254P         2020 09 28.6929  3.148373  0.318523  219.7346  129.1800   32.5392  20250408  11.0  4.0  254P/McNaught                                            MPC182890
0255P         2027 09 25.4690  0.847251  0.712046  186.0430  275.6366   13.4053  20250408   9.0  4.0  255P/Levy                                                NK   2214
0256P         2023 03 11.9326  2.697854  0.417976  124.0718   81.3267   27.6238  20250408  14.0  2.0  256P/LINEAR                                              MPEC 2024-L77
0257P         2028 01  1.7219  2.152157  0.428799  117.7354  207.7274   20.2161  20250408  11.5  4.0  257P/Catalina                                            MPEC 2023-A50
0258P         2029 08 28.8413  3.469614  0.209489   25.6001  126.2360    6.7511  20250408  13.0  4.0  258P/PANSTARRS                                           MPEC 2021-U31
0259P         2026 08 12.1830  1.804834  0.338724  257.4946   51.3727   15.8982  20250408  15.5  4.0  259P/Garradd                                             MPC106349
0260P         2026 08  4.9771  1.417476  0.608819   18.4920  349.3082   15.0434  20250408  13.5  4.0  260P/McNaught                                            MPEC 2022-O01
0261P         2025 12 27.3745  2.014183  0.422832   67.3645  291.0506    6.0733  20250408  14.0  4.0  261P/Larson                                              MPEC 2021-J28
0262P         2030 12 14.8820  1.263712  0.816035  171.0699  217.8872   29.2542  20250408  13.5  4.0  262P/McNaught-Russell                                    MPC 82322
0263P         2023 01 30.8593  1.234557  0.594017   35.0207  105.5039   11.5267  20250408  18.0  4.0  263P/Gibbs                                               MPEC 2024-L77
0264P         2027 03 15.6054  2.656333  0.340599  341.1271  219.2023   25.1720  20250408  13.0  4.0  264P/Larsen                                              MPC114608
0265P         2021 02  8.8089  1.504847  0.646801   33.5601  342.9253   14.3422  20250408  14.5  4.0  265P/LINEAR                                              MPC 79870
0266P         2026 12  7.2981  2.325308  0.340917   97.7810    4.9476    3.4282  20250408  14.7  4.0  266P/Christensen                                         MPEC 2021-F20
0267P         2024 04 24.8810  1.236462  0.614706  114.2069  228.5733    6.1407  20250408  19.5  4.0  267P/LONEOS                                              MPC114608
0268P         2024 12 18.4822  2.412667  0.474514    0.0167  125.6323   15.6614  20250408  14.0  4.0  268P/Bernardi                                            MPC182890
0269P         2033 07 11.2629  3.999061  0.433466  225.7197  241.7675    7.0841  20250408  10.0  4.0  269P/Jedicke                                             MPEC 2023-J29
0270P         2030 08 16.5366  3.522962  0.470193  209.9175  223.0285    2.9249  20250408   8.0  4.0  270P/Gehrels                                             MPC 88332
0271P         2032 03 21.4255  4.247954  0.395944   36.6075    9.2854    6.8671  20250408  11.0  4.0  271P/van Houten-Lemmon                                   MPC 92277
0272P         2022 07 17.4318  2.429670  0.455470   27.8870  109.4392   18.0819  20250408  16.0  2.0  272P/NEAT                                                MPEC 2023-D41
0273P         2012 12 22.1036  0.814036  0.974512   20.1353  320.3866  136.3891  20250408  11.5  4.0  273P/Pons-Gambart                                        MPC 82723
0274P         2022 04  9.0921  2.450942  0.440221   38.4898   81.3178   15.8209  20250408  13.0  4.0  274P/Tombaugh-Tenagra                                    MPEC 2024-GJ3
0275P         2026 10 28.0249  1.659030  0.713706  173.8983  348.6872   21.2550  20250408  17.0  4.0  275P/Hermann                                             MPC 81862
0276P         2024 12 10.8497  3.898669  0.272754  199.3040  211.3045   14.7856  20250408  11.5  4.0  276P/Vorobjov                                            MPC182890
0277P         2028 07 25.7510  1.902027  0.506427  152.4331  276.2603   16.7927  20250408  15.1  4.0  277P/LINEAR                                              MPEC 2021-F20
0278P         2027 09 16.1202  2.008683  0.449350  239.5023   13.4127    6.6178  20250408  14.0  4.0  278P/McNaught                                            MPEC 2021-S45
0279P         2023 04 18.7960  2.143357  0.399387    5.6502  346.1039    5.0523  20250408  14.0  4.0  279P/LaSagra                                             MPEC 2024-A43
0280P         2023 08  4.4091  2.638843  0.416807  104.6478  131.3777   11.7753  20250408  12.5  4.0  280P/Larsen                                              MPEC 2024-RQ6
0281P         2023 02  3.9944  4.036480  0.173916   26.9799   87.1658    4.7177  20250408  11.0  4.0  281P/MOSS                                                MPEC 2023-D41
0282P         2021 10 22.8329  3.440788  0.187650    9.1114  217.6077    5.8135  20250408  13.5  2.0  282P                                                     MPC133426
0283P         2021 09  8.1629  2.128373  0.484895   22.1443  161.1228   14.4676  20250408  16.0  2.0  283P/Spacewatch                                          MPEC 2022-K19
0284P         2028 10  1.6616  2.301599  0.374359  202.4692  144.2650   11.8533  20250408  13.0  4.0  284P/McNaught                                            MPEC 2024-D33
0285P         2023 01 11.8836  1.720588  0.618115  178.3883  185.5132   25.0332  20250408  15.0  4.0  285P/LINEAR                                              MPEC 2024-L77
0286P         2022 05 12.1805  2.328086  0.429874   24.1813  283.5733   17.2056  20250408  14.0  4.0  286P/Christensen                                         MPEC 2024-LE0
0287P         2023 07  9.6733  3.041502  0.272846  190.1264  138.7771   16.3269  20250408  13.5  4.0  287P/Christensen                                         MPEC 2025-A40
0288P         2027 06 28.9785  2.441314  0.199668  280.2957   83.1055    3.2383  20250408  16.0  2.0  288P                                                     MPC133426
0289P         2025 04 14.3195  0.954340  0.686478    9.8784   68.8913    5.9003  20250408  19.0  4.0  289P/Blanpain                                            MPEC 2024-O39
0290P         2029 07 22.2256  2.310295  0.628212  181.8525  302.6742   20.0464  20250408  10.5  4.0  290P/Jager                                               MPC 95214
0291P         2023 05  4.0249  2.567079  0.433919  173.5596  237.6611    6.3097  20250408  13.0  4.0  291P/NEAT                                                MPEC 2024-YC7
0292P         2029 03  3.5904  2.499904  0.589921  319.6580   90.8953   24.3225  20250408  12.5  4.0  292P/Li                                                  MPEC 2022-K19
0293P         2027 11 29.0368  2.111746  0.419500   40.9779   78.3634    9.0612  20250408  14.5  4.0  293P/Spacewatch                                          MPEC 2022-L66
0294P         2025 08 11.1885  1.273089  0.601033  237.5785  309.6010   17.7422  20250408  15.5  4.0  294P/LINEAR                                              MPC182890
0295P         2026 07 22.7196  2.026181  0.617645   73.0352    7.3823   21.0840  20250408  12.0  4.0  295P/LINEAR                                              MPEC 2022-K19
0296P         2027 03 20.6852  1.788582  0.485270  350.1329  263.5325   25.3803  20250408  14.0  4.0  296P/Garradd                                             MPEC 2021-N06
0297P         2027 10 14.0819  2.538253  0.288011  142.2769   92.1815   11.2407  20250408  15.0  4.0  297P/Beshore                                             MPC102956
0298P         2027 06 24.8134  2.200048  0.386871  100.6158   52.7877    7.8721  20250408  15.0  4.0  298P/Christensen                                         MPC114609
0299P         2024 04 30.0475  3.155919  0.280926  323.6260  271.5806   10.4690  20250408  11.5  4.0  299P/Catalina-PANSTARRS                                  MPEC 2024-TD8
0300P         2023 04 11.0097  0.830522  0.692000  222.8838   95.6217    5.6765  20250408  16.0  4.0  300P/Catalina                                            MPEC 2023-VM5
0301P         2028 05 17.2472  2.380010  0.586170  193.4389  351.0641   10.3290  20250408  13.0  4.0  301P/LINEAR-NEAT                                         MPC 89014
0302P         2025 03  9.4111  3.288630  0.229388  208.6276  121.7155    6.0356  20250408  12.5  4.0  302P/Lemmon-PANSTARRS                                    MPEC 2024-YC7
0303P         2026 02 19.9139  2.468104  0.510300  357.0290  347.9512    7.0162  20250408  13.5  4.0  303P/NEAT                                                MPC 92278
